# From MPC106342
C/1995 O1 (Hale-Bopp),e,88.9848,283.3723,130.6112,180.1482,0.0004076,0.99493351,0.0000,03/29.6755/1997,2000,g -2.0,4.0
# From NK 1615
P/1996 R2 (Lagerkvist),e,2.6003,40.0417,333.2951,3.774765,0.1343907,0.31388788,64.4377,06/05.0/2020,2000,g 11.5,4.0
# From MPC 30063
P/1997 B1 (Kobayashi),e,12.3401,328.8905,183.3840,8.561960,0.0393409,0.76005658,333.9628,06/05.0/2020,2000,g 15.0,2.0
# From MPC 75703
P/1998 VS24 (LINEAR),e,5.0244,159.0300,244.7270,4.530621,0.1022039,0.24176144,88.8135,06/05.0/2020,2000,g 13.0,2.0
# From NK 731
P/1999 RO28 (LONEOS),e,7.5660,137.8824,231.2752,3.426701,0.1553781,0.67193529,53.5990,06/05.0/2020,2000,g 20.0,2.0
# From MPC 75704
P/1999 XN120 (Catalina),e,5.0297,285.2964,161.9474,4.179108,0.1153662,0.21047664,125.7162,06/05.0/2020,2000,g 13.5,2.0
# From NK 744
P/2000 R2 (LINEAR),e,11.6835,160.3013,176.4918,3.465315,0.1527883,0.53150506,54.0331,06/05.0/2020,2000,g 18.0,4.0
# From MPC 43019
P/2001 H5 (NEAT),e,8.3683,328.6877,224.8754,6.098235,0.0654482,0.59894313,110.5923,06/05.0/2020,2000,g 12.0,4.0
# From MPC 75704
P/2001 Q6 (NEAT),e,56.8948,22.1034,42.9625,7.948291,0.0439839,0.82268974,299.9885,06/05.0/2020,2000,g 13.5,4.0
# From MPC 47727
P/2002 EJ57 (LINEAR),e,4.9757,330.3443,167.3214,6.473982,0.0598338,0.59319629,42.9127,06/05.0/2020,2000,g 12.5,4.0
# From MPC109588
P/2002 T5 (LINEAR),e,30.8531,123.0886,326.7963,7.001810,0.0531972,0.43765023,330.2687,06/05.0/2020,2000,g  8.0,4.0
# From MPC109588
P/2002 T6 (NEAT-LINEAR),e,10.8337,206.6156,219.4898,7.663522,0.0464581,0.55962236,289.8154,06/05.0/2020,2000,g 10.5,4.0
# From MPC 75007
C/2002 VQ94 (LINEAR),e,70.5305,34.9773,100.1962,186.7715,0.0003861,0.96339903,2.0241,06/05.0/2020,2000,g  9.5,2.0
# From MPC 50354
P/2003 F2 (NEAT),e,11.6055,359.0889,191.8530,6.485448,0.0596752,0.54201974,12.2881,06/05.0/2020,2000,g 16.5,2.0
# From MPC 50139
P/2003 QX29 (NEAT),e,11.3899,264.6027,37.3298,8.036761,0.0432596,0.47287979,278.3840,06/05.0/2020,2000,g  8.5,4.0
# From MPC105235
P/2003 T12 (SOHO),e,11.0160,174.5749,219.7717,2.586119,0.2369906,0.76960686,6.9067,06/05.0/2020,2000,g 17.0,4.0
# From MPC 82312
P/2004 A1 (LONEOS),e,10.5518,124.8496,21.5152,7.951704,0.0439556,0.30952884,253.4669,06/05.0/2020,2000,g  6.5,4.0
# From MPC 54558
P/2004 DO29 (Spacewatch-LINEAR),e,14.5313,147.3890,40.7601,7.280639,0.0501707,0.44155153,286.7224,06/05.0/2020,2000,g 13.5,2.0
# From MPC 54823
P/2004 FY140 (LINEAR),e,2.1348,326.7632,242.4835,4.900325,0.0908588,0.16895975,161.3433,06/05.0/2020,2000,g 12.5,2.0
# From MPC 53304
P/2004 R3 (LINEAR-NEAT),e,12.8151,305.5029,39.4444,4.778653,0.0943508,0.26070555,314.3505,06/05.0/2020,2000,g 14.5,4.0
# From MPC 55521
P/2004 V3 (Siding Spring),e,50.4238,356.1095,322.2593,7.146555,0.0515892,0.44626060,294.7502,06/05.0/2020,2000,g 11.5,4.0
# From MPC 75705
P/2004 V5 (LINEAR-Hill),e,19.3480,47.7544,87.8577,7.972692,0.0437821,0.44360230,244.7474,06/05.0/2020,2000,g  8.0,4.0
# From MPC 54164
P/2005 E1 (Tubbiolo),e,4.2637,335.5800,194.1772,7.035005,0.0528211,0.37530742,295.9699,06/05.0/2020,2000,g 10.0,4.0
# From MPC 54823
P/2005 GF8 (LONEOS),e,1.1934,314.8388,285.3536,5.875396,0.0692067,0.51840660,17.2093,06/05.0/2020,2000,g 11.5,4.0
# From MPC 79019
P/2005 J1 (McNaught),e,31.7693,268.7971,338.9462,3.569189,0.1461671,0.57006979,87.8734,06/05.0/2020,2000,g 16.5,4.0
# From MPC 74246
P/2005 L1 (McNaught),e,7.7385,138.2465,149.6474,3.975833,0.1243260,0.20932592,295.9229,06/05.0/2020,2000,g  9.5,4.0
# From MPC 75706
P/2005 S2 (Skiff),e,3.1356,161.1857,229.1856,8.019173,0.0434020,0.19644256,223.2168,06/05.0/2020,2000,g  7.5,4.0
# From MPC 75706
P/2005 SB216 (LONEOS),e,24.0643,1.2739,83.4120,7.124727,0.0518265,0.46299207,253.4134,06/05.0/2020,2000,g 12.0,2.0
# From MPC 55717
P/2005 T2 (Christensen),e,8.2928,260.1578,58.8038,3.846729,0.1306372,0.41655461,7.5301,06/05.0/2020,2000,g 14.5,4.0
# From MPC 73461
P/2005 T3 (Read),e,6.2262,27.7731,7.2333,7.573003,0.0472935,0.17354622,252.3928,06/05.0/2020,2000,g  9.0,4.0
# From MPC 73461
P/2005 T4 (SWAN),e,160.1537,25.5961,41.5006,9.360225,0.0344171,0.93009004,184.6284,06/05.0/2020,2000,g 15.0,4.0
# From MPC 75706
P/2005 T5 (Broughton),e,21.3459,57.0135,304.4924,7.293211,0.0500410,0.55167050,268.1131,06/05.0/2020,2000,g 11.0,4.0
# From MPC 56954
P/2005 W3 (Kowalski),e,16.4130,210.1157,200.5844,6.337231,0.0617810,0.54362854,330.8084,06/05.0/2020,2000,g 12.0,4.0
# From MPC 75706
P/2005 XA54 (LONEOS-Hill),e,17.1184,143.6733,15.1479,6.051275,0.0662116,0.71016427,344.2219,06/05.0/2020,2000,g 14.0,4.0
# From MPC 75706
P/2005 Y2 (McNaught),e,19.1081,94.5166,194.1472,6.366363,0.0613574,0.46899400,351.5082,06/05.0/2020,2000,g  9.0,4.0
# From MPC 56954
P/2006 F4 (Spacewatch),e,12.3882,183.9575,31.2447,3.529559,0.1486358,0.33897610,45.6450,06/05.0/2020,2000,g 15.0,4.0
# From MPC 58118
P/2006 H1 (McNaught),e,12.8051,359.8916,309.2790,5.770939,0.0710942,0.58019412,12.8315,06/05.0/2020,2000,g 12.5,4.0
# From MPC 75707
P/2006 HR30 (Siding Spring),e,31.8323,309.8957,117.3006,7.811239,0.0451465,0.84178741,222.1472,06/05.0/2020,2000,g 11.0,4.0
# From MPC 75707
P/2006 S4 (Christensen),e,39.5408,36.1020,305.1600,6.307508,0.0622182,0.50766857,323.3609,06/05.0/2020,2000,g 11.0,4.0
# From MPC 75707
P/2007 A2 (Christensen),e,26.4876,300.9062,186.7940,6.321387,0.0620134,0.55744502,303.7166,06/05.0/2020,2000,g 13.5,4.0
# From MPC 59319
P/2007 B1 (Christensen),e,12.3771,77.6668,46.7704,5.817497,0.0702425,0.58080914,343.5143,06/05.0/2020,2000,g 13.5,4.0
# From MPC 75707
P/2007 C2 (Catalina),e,8.6797,275.7137,179.7454,6.999050,0.0532287,0.46895895,246.9339,06/05.0/2020,2000,g 10.0,4.0
# From MPC 84315
C/2007 D1 (LINEAR),e,41.5007,171.1448,340.1769,1707,0.0000140,0.99482342,0.0000,06/11.0582/2007,2000,g  3.5,4.0
# From MPC 82314
P/2007 K2 (Gibbs),e,7.6411,188.6497,347.4954,7.260082,0.0503839,0.68366899,239.0695,06/05.0/2020,2000,g 14.0,4.0
# From MPC 60925
P/2007 Q2 (Gilmore),e,10.2006,172.1780,162.7829,5.657354,0.0732460,0.67044674,347.1809,06/05.0/2020,2000,g 16.0,4.0
# From MPC 75708
P/2007 R2 (Gibbs),e,1.2165,11.4319,352.3694,3.573936,0.1458760,0.54236312,344.9474,06/05.0/2020,2000,g 17.0,4.0
# From MPC 75708
P/2007 R4 (Garradd),e,20.2336,87.2191,282.7404,5.917783,0.0684645,0.66979095,322.2071,06/05.0/2020,2000,g 14.5,4.0
# From MPC 73462
P/2007 S1 (Zhao),e,5.9626,141.3929,245.8269,3.810661,0.1324963,0.33975961,246.5966,06/05.0/2020,2000,g 13.0,4.0
# From MPC 61994
P/2007 T2 (Kowalski),e,9.7410,3.3784,359.6344,3.047445,0.1852679,0.78505584,126.4322,06/05.0/2020,2000,g 18.5,4.0
# From MPC 75708
P/2007 VQ11 (Catalina),e,12.3201,163.8188,277.6825,5.424856,0.0780049,0.50315532,351.8046,06/05.0/2020,2000,g 12.0,4.0
# From MPC 75708
P/2008 CL94 (Lemmon),e,8.3486,33.3414,80.6617,6.158712,0.0644866,0.12006372,329.3265,06/05.0/2020,2000,g  8.0,4.0
# From MPC 75709
P/2008 L2 (Hill),e,25.8500,218.0038,141.1983,6.028876,0.0665809,0.61280625,288.7259,06/05.0/2020,2000,g 12.5,4.0
# From MPC 64114
P/2008 O3 (Boattini),e,32.2274,47.6109,341.0774,8.225235,0.0417813,0.69464157,183.7401,06/05.0/2020,2000,g 13.0,4.0
# From MPC 75709
P/2008 QP20 (LINEAR-Hill),e,7.5173,322.1204,75.7372,3.548108,0.1474718,0.49292587,275.0507,06/05.0/2020,2000,g 15.5,4.0
# From MPC 66204
P/2008 WZ96 (LINEAR),e,7.1243,56.6082,341.7921,3.491561,0.1510688,0.47134431,292.4161,06/05.0/2020,2000,g 13.5,4.0
# From MPC 75710
P/2008 Y3 (McNaught),e,38.7592,262.7801,238.3264,8.044915,0.0431939,0.44568175,180.3598,06/05.0/2020,2000,g  8.5,4.0
# From MPC 75710
P/2009 B1 (Boattini),e,22.2185,297.0925,128.9213,6.734607,0.0563944,0.63446904,234.7721,06/05.0/2020,2000,g 13.0,4.0
# From MPC 66466
C/2009 G1 (STEREO),e,108.7487,120.4321,175.3538,415.3913,0.0001164,0.99727409,0.0000,04/14.5276/2009,2000,g  9.0,4.0
# From MPC 75710
P/2009 O3 (Hill),e,16.2536,183.7328,154.3566,7.772102,0.0454879,0.68724522,183.6000,06/05.0/2020,2000,g 12.5,4.0
# From MPC 98557
P/2009 Q1 (Hill),e,14.5047,173.9556,157.1132,5.520021,0.0759964,0.49460596,305.4170,06/05.0/2020,2000,g 11.5,4.0
# From MPC112389
P/2009 Q4 (Boattini),e,11.0153,127.4651,320.2266,3.127848,0.1781704,0.58252372,323.4790,06/05.0/2020,2000,g 15.5,4.0
# From MPC 68902
P/2009 Q5 (McNaught),e,40.9606,160.2496,209.0176,7.440130,0.0485661,0.60825642,190.8953,06/05.0/2020,2000,g 10.0,4.0
# From MPC112389
P/2009 T2 (La Sagra),e,27.5285,215.7630,216.4598,7.725498,0.0459002,0.76482792,174.9712,06/05.0/2020,2000,g 14.0,4.0
# From MPC 75711
P/2009 U4 (McNaught),e,10.0818,55.3599,259.8529,5.080487,0.0860689,0.67592543,339.2452,06/05.0/2020,2000,g 14.0,4.0
# From MPC105235
P/2009 WX51 (Catalina),e,9.5957,31.6889,118.0685,3.078705,0.1824534,0.74017226,330.0113,06/05.0/2020,2000,g 19.0,2.0
# From MPC 74247
P/2009 Y2 (Kowalski),e,29.9272,262.0236,172.2010,6.548060,0.0588214,0.63574312,220.2633,06/05.0/2020,2000,g 13.0,4.0
# From MPC 75711
P/2010 A3 (Hill),e,14.8904,64.2530,41.7954,6.074381,0.0658341,0.73295088,245.1917,06/05.0/2020,2000,g 14.0,4.0
# From MPC 72851
P/2010 A5 (LINEAR),e,5.7985,277.6649,307.0884,5.084450,0.0859683,0.66515079,317.0649,06/05.0/2020,2000,g 13.0,4.0
# From MPC105235
P/2010 B2 (WISE),e,8.9305,0.8518,155.9268,3.109823,0.1797217,0.47990875,327.1859,06/05.0/2020,2000,g 17.0,4.0
# From MPC 75008
P/2010 C1 (Scotti),e,9.1285,141.8869,3.8707,7.101792,0.0520777,0.25861120,200.4957,06/05.0/2020,2000,g  9.5,4.0
# From MPC 75008
P/2010 D2 (WISE),e,57.0847,319.8918,120.1423,6.714990,0.0566417,0.45069861,212.9124,06/05.0/2020,2000,g 16.0,4.0
# From MPC 75009
P/2010 E2 (Jarnac),e,15.4164,177.8254,8.3746,8.636603,0.0388320,0.72063225,144.1904,06/05.0/2020,2000,g 14.0,4.0
# From MPC 72851
P/2010 H2 (Vales),e,14.2725,64.2150,128.2931,3.835531,0.1312096,0.19552533,131.1172,06/05.0/2020,2000,g  6.0,4.0
# From MPC 70361
P/2010 H3 (SOHO),e,23.2024,77.3126,25.9348,3.063434,0.1838194,0.98549371,0.0000,02/07.9142/2021,2000,g 20.0,2.0
# From MPC 73463
P/2010 H4 (Scotti),e,2.3196,44.7535,179.5715,6.587425,0.0582949,0.26801282,211.9506,06/05.0/2020,2000,g 10.5,4.0
# From MPC 74637
